<?xml version="1.0" encoding="UTF-8"?>
<gpx version="1.1" creator="bsh-curvas-merge" xmlns="http://www.topografix.com/GPX/1/1">
  <trk>
    <name>Negreiros (Montalegre)</name>
    <trkseg>
      <trkpt lat="41.529323" lon="-8.445560"></trkpt>
      <trkpt lat="41.531288" lon="-8.440298"></trkpt>
      <trkpt lat="41.542475" lon="-8.430973"></trkpt>
      <trkpt lat="41.546048" lon="-8.418635"></trkpt>
      <trkpt lat="41.548772" lon="-8.416075"></trkpt>
      <trkpt lat="41.560207" lon="-8.387500"></trkpt>
      <trkpt lat="41.566245" lon="-8.377405"></trkpt>
      <trkpt lat="41.566393" lon="-8.371770"></trkpt>
      <trkpt lat="41.568177" lon="-8.369717"></trkpt>
      <trkpt lat="41.571847" lon="-8.368608"></trkpt>
      <trkpt lat="41.582062" lon="-8.370172"></trkpt>
      <trkpt lat="41.583973" lon="-8.369232"></trkpt>
      <trkpt lat="41.585292" lon="-8.366133"></trkpt>
      <trkpt lat="41.585440" lon="-8.358898"></trkpt>
      <trkpt lat="41.587237" lon="-8.352780"></trkpt>
      <trkpt lat="41.589225" lon="-8.347500"></trkpt>
      <trkpt lat="41.592695" lon="-8.343470"></trkpt>
      <trkpt lat="41.591785" lon="-8.342138"></trkpt>
      <trkpt lat="41.588467" lon="-8.341798"></trkpt>
      <trkpt lat="41.586453" lon="-8.332943"></trkpt>
      <trkpt lat="41.588620" lon="-8.322637"></trkpt>
      <trkpt lat="41.584350" lon="-8.320343"></trkpt>
      <trkpt lat="41.584693" lon="-8.305898"></trkpt>
      <trkpt lat="41.589202" lon="-8.296383"></trkpt>
      <trkpt lat="41.588498" lon="-8.291872"></trkpt>
      <trkpt lat="41.589550" lon="-8.288423"></trkpt>
      <trkpt lat="41.595040" lon="-8.284010"></trkpt>
      <trkpt lat="41.599970" lon="-8.275538"></trkpt>
      <trkpt lat="41.602840" lon="-8.275678"></trkpt>
      <trkpt lat="41.607065" lon="-8.272718"></trkpt>
      <trkpt lat="41.607610" lon="-8.270297"></trkpt>
      <trkpt lat="41.609467" lon="-8.269065"></trkpt>
      <trkpt lat="41.609282" lon="-8.261035"></trkpt>
      <trkpt lat="41.616693" lon="-8.254863"></trkpt>
      <trkpt lat="41.613122" lon="-8.251705"></trkpt>
      <trkpt lat="41.611135" lon="-8.246220"></trkpt>
      <trkpt lat="41.612732" lon="-8.241965"></trkpt>
      <trkpt lat="41.615295" lon="-8.240455"></trkpt>
      <trkpt lat="41.614803" lon="-8.237752"></trkpt>
      <trkpt lat="41.616902" lon="-8.231842"></trkpt>
      <trkpt lat="41.621770" lon="-8.227920"></trkpt>
      <trkpt lat="41.619830" lon="-8.223805"></trkpt>
      <trkpt lat="41.623692" lon="-8.212228"></trkpt>
      <trkpt lat="41.623398" lon="-8.207438"></trkpt>
      <trkpt lat="41.634223" lon="-8.195665"></trkpt>
      <trkpt lat="41.634315" lon="-8.191250"></trkpt>
      <trkpt lat="41.637123" lon="-8.185065"></trkpt>
      <trkpt lat="41.641032" lon="-8.182707"></trkpt>
      <trkpt lat="41.645982" lon="-8.183252"></trkpt>
      <trkpt lat="41.652350" lon="-8.168108"></trkpt>
      <trkpt lat="41.654808" lon="-8.168840"></trkpt>
      <trkpt lat="41.657877" lon="-8.167030"></trkpt>
      <trkpt lat="41.658228" lon="-8.165105"></trkpt>
      <trkpt lat="41.661408" lon="-8.164752"></trkpt>
      <trkpt lat="41.662530" lon="-8.159868"></trkpt>
      <trkpt lat="41.664230" lon="-8.159453"></trkpt>
      <trkpt lat="41.665352" lon="-8.156897"></trkpt>
      <trkpt lat="41.669558" lon="-8.158643"></trkpt>
      <trkpt lat="41.671928" lon="-8.154050"></trkpt>
      <trkpt lat="41.671752" lon="-8.149717"></trkpt>
      <trkpt lat="41.673942" lon="-8.146680"></trkpt>
      <trkpt lat="41.672337" lon="-8.141013"></trkpt>
      <trkpt lat="41.675500" lon="-8.138885"></trkpt>
      <trkpt lat="41.674882" lon="-8.133620"></trkpt>
      <trkpt lat="41.678613" lon="-8.123775"></trkpt>
      <trkpt lat="41.676805" lon="-8.120138"></trkpt>
      <trkpt lat="41.679765" lon="-8.117100"></trkpt>
      <trkpt lat="41.681415" lon="-8.110218"></trkpt>
      <trkpt lat="41.680257" lon="-8.107157"></trkpt>
      <trkpt lat="41.677842" lon="-8.107075"></trkpt>
      <trkpt lat="41.679835" lon="-8.102915"></trkpt>
      <trkpt lat="41.678798" lon="-8.099552"></trkpt>
      <trkpt lat="41.681770" lon="-8.099122"></trkpt>
      <trkpt lat="41.683368" lon="-8.094993"></trkpt>
      <trkpt lat="41.682188" lon="-8.092242"></trkpt>
      <trkpt lat="41.683253" lon="-8.086273"></trkpt>
      <trkpt lat="41.681338" lon="-8.068013"></trkpt>
      <trkpt lat="41.680248" lon="-8.066507"></trkpt>
      <trkpt lat="41.678742" lon="-8.067330"></trkpt>
      <trkpt lat="41.677108" lon="-8.063763"></trkpt>
      <trkpt lat="41.674583" lon="-8.062718"></trkpt>
      <trkpt lat="41.674225" lon="-8.058573"></trkpt>
      <trkpt lat="41.676257" lon="-8.054722"></trkpt>
      <trkpt lat="41.675643" lon="-8.045385"></trkpt>
      <trkpt lat="41.676372" lon="-8.044883"></trkpt>
      <trkpt lat="41.677742" lon="-8.050277"></trkpt>
      <trkpt lat="41.679242" lon="-8.051030"></trkpt>
      <trkpt lat="41.679762" lon="-8.049407"></trkpt>
      <trkpt lat="41.684220" lon="-8.046855"></trkpt>
      <trkpt lat="41.684662" lon="-8.041630"></trkpt>
      <trkpt lat="41.687593" lon="-8.037125"></trkpt>
      <trkpt lat="41.686745" lon="-8.034430"></trkpt>
      <trkpt lat="41.684288" lon="-8.034440"></trkpt>
      <trkpt lat="41.684647" lon="-8.029155"></trkpt>
      <trkpt lat="41.683425" lon="-8.026007"></trkpt>
      <trkpt lat="41.681152" lon="-8.026832"></trkpt>
      <trkpt lat="41.679320" lon="-8.018838"></trkpt>
      <trkpt lat="41.680640" lon="-8.014870"></trkpt>
      <trkpt lat="41.682328" lon="-8.014047"></trkpt>
      <trkpt lat="41.681357" lon="-8.010288"></trkpt>
      <trkpt lat="41.683563" lon="-8.008128"></trkpt>
      <trkpt lat="41.679017" lon="-8.001388"></trkpt>
      <trkpt lat="41.683058" lon="-7.997642"></trkpt>
      <trkpt lat="41.682958" lon="-7.995628"></trkpt>
      <trkpt lat="41.680487" lon="-7.993805"></trkpt>
      <trkpt lat="41.681045" lon="-7.991798"></trkpt>
      <trkpt lat="41.678287" lon="-7.984662"></trkpt>
      <trkpt lat="41.668722" lon="-7.987668"></trkpt>
      <trkpt lat="41.666250" lon="-7.982027"></trkpt>
      <trkpt lat="41.666905" lon="-7.981183"></trkpt>
      <trkpt lat="41.670418" lon="-7.983248"></trkpt>
      <trkpt lat="41.673268" lon="-7.979818"></trkpt>
      <trkpt lat="41.672263" lon="-7.969270"></trkpt>
      <trkpt lat="41.669548" lon="-7.967747"></trkpt>
      <trkpt lat="41.671135" lon="-7.966125"></trkpt>
      <trkpt lat="41.671545" lon="-7.960810"></trkpt>
      <trkpt lat="41.674183" lon="-7.960083"></trkpt>
      <trkpt lat="41.672153" lon="-7.954783"></trkpt>
      <trkpt lat="41.673322" lon="-7.951520"></trkpt>
      <trkpt lat="41.676002" lon="-7.953402"></trkpt>
      <trkpt lat="41.679612" lon="-7.949515"></trkpt>
      <trkpt lat="41.683512" lon="-7.956645"></trkpt>
      <trkpt lat="41.684742" lon="-7.956865"></trkpt>
      <trkpt lat="41.686353" lon="-7.953897"></trkpt>
      <trkpt lat="41.689215" lon="-7.952728"></trkpt>
      <trkpt lat="41.688618" lon="-7.949925"></trkpt>
      <trkpt lat="41.692663" lon="-7.945890"></trkpt>
      <trkpt lat="41.695373" lon="-7.938143"></trkpt>
      <trkpt lat="41.699248" lon="-7.936757"></trkpt>
      <trkpt lat="41.701240" lon="-7.924340"></trkpt>
      <trkpt lat="41.705743" lon="-7.925788"></trkpt>
      <trkpt lat="41.705387" lon="-7.921140"></trkpt>
      <trkpt lat="41.708883" lon="-7.917343"></trkpt>
      <trkpt lat="41.710065" lon="-7.911298"></trkpt>
      <trkpt lat="41.708735" lon="-7.906930"></trkpt>
      <trkpt lat="41.709478" lon="-7.903013"></trkpt>
      <trkpt lat="41.714925" lon="-7.895302"></trkpt>
      <trkpt lat="41.715925" lon="-7.889505"></trkpt>
      <trkpt lat="41.722180" lon="-7.881698"></trkpt>
      <trkpt lat="41.723005" lon="-7.877287"></trkpt>
      <trkpt lat="41.722025" lon="-7.874410"></trkpt>
      <trkpt lat="41.730327" lon="-7.871058"></trkpt>
      <trkpt lat="41.733450" lon="-7.872832"></trkpt>
      <trkpt lat="41.735287" lon="-7.870615"></trkpt>
      <trkpt lat="41.737962" lon="-7.869947"></trkpt>
      <trkpt lat="41.738022" lon="-7.866817"></trkpt>
      <trkpt lat="41.740050" lon="-7.864333"></trkpt>
      <trkpt lat="41.742815" lon="-7.864947"></trkpt>
      <trkpt lat="41.741890" lon="-7.859725"></trkpt>
      <trkpt lat="41.736333" lon="-7.852080"></trkpt>
      <trkpt lat="41.731003" lon="-7.853962"></trkpt>
      <trkpt lat="41.728223" lon="-7.850517"></trkpt>
      <trkpt lat="41.727883" lon="-7.845157"></trkpt>
      <trkpt lat="41.730473" lon="-7.842517"></trkpt>
      <trkpt lat="41.730540" lon="-7.834893"></trkpt>
      <trkpt lat="41.734053" lon="-7.831148"></trkpt>
      <trkpt lat="41.734640" lon="-7.823282"></trkpt>
      <trkpt lat="41.733498" lon="-7.822128"></trkpt>
      <trkpt lat="41.730260" lon="-7.822417"></trkpt>
      <trkpt lat="41.733378" lon="-7.817938"></trkpt>
      <trkpt lat="41.732027" lon="-7.812207"></trkpt>
      <trkpt lat="41.732597" lon="-7.805340"></trkpt>
      <trkpt lat="41.729622" lon="-7.805262"></trkpt>
      <trkpt lat="41.727238" lon="-7.802900"></trkpt>
      <trkpt lat="41.728363" lon="-7.800073"></trkpt>
      <trkpt lat="41.734157" lon="-7.797055"></trkpt>
      <trkpt lat="41.738028" lon="-7.802358"></trkpt>
      <trkpt lat="41.734438" lon="-7.797242"></trkpt>
      <trkpt lat="41.736313" lon="-7.791123"></trkpt>
      <trkpt lat="41.732958" lon="-7.787798"></trkpt>
      <trkpt lat="41.735783" lon="-7.788090"></trkpt>
      <trkpt lat="41.738145" lon="-7.785035"></trkpt>
      <trkpt lat="41.737717" lon="-7.777580"></trkpt>
      <trkpt lat="41.744485" lon="-7.776823"></trkpt>
      <trkpt lat="41.751177" lon="-7.772937"></trkpt>
      <trkpt lat="41.752510" lon="-7.770238"></trkpt>
      <trkpt lat="41.752228" lon="-7.762797"></trkpt>
      <trkpt lat="41.753538" lon="-7.760882"></trkpt>
      <trkpt lat="41.751863" lon="-7.757515"></trkpt>
      <trkpt lat="41.754887" lon="-7.753967"></trkpt>
      <trkpt lat="41.753388" lon="-7.748817"></trkpt>
      <trkpt lat="41.757508" lon="-7.743442"></trkpt>
      <trkpt lat="41.762183" lon="-7.742540"></trkpt>
      <trkpt lat="41.764620" lon="-7.746502"></trkpt>
      <trkpt lat="41.764443" lon="-7.749842"></trkpt>
      <trkpt lat="41.773038" lon="-7.753993"></trkpt>
      <trkpt lat="41.774887" lon="-7.753737"></trkpt>
      <trkpt lat="41.779560" lon="-7.758078"></trkpt>
      <trkpt lat="41.782798" lon="-7.749472"></trkpt>
      <trkpt lat="41.786605" lon="-7.747332"></trkpt>
      <trkpt lat="41.787348" lon="-7.743798"></trkpt>
      <trkpt lat="41.794067" lon="-7.747300"></trkpt>
      <trkpt lat="41.795657" lon="-7.745390"></trkpt>
      <trkpt lat="41.800352" lon="-7.744642"></trkpt>
      <trkpt lat="41.810603" lon="-7.756303"></trkpt>
      <trkpt lat="41.813515" lon="-7.756260"></trkpt>
      <trkpt lat="41.817168" lon="-7.759680"></trkpt>
      <trkpt lat="41.824747" lon="-7.769183"></trkpt>
      <trkpt lat="41.826787" lon="-7.774243"></trkpt>
      <trkpt lat="41.826605" lon="-7.778643"></trkpt>
      <trkpt lat="41.829922" lon="-7.781842"></trkpt>
      <trkpt lat="41.828245" lon="-7.789065"></trkpt>
      <trkpt lat="41.824157" lon="-7.789602"></trkpt>
      <trkpt lat="41.822808" lon="-7.791972"></trkpt>
      <trkpt lat="41.824615" lon="-7.792630"></trkpt>
      <trkpt lat="41.825607" lon="-7.791608"></trkpt>
      <trkpt lat="41.823012" lon="-7.792447"></trkpt>
      <trkpt lat="41.823302" lon="-7.790672"></trkpt>
      <trkpt lat="41.822780" lon="-7.791922"></trkpt>
      <trkpt lat="41.817867" lon="-7.793098"></trkpt>
      <trkpt lat="41.810203" lon="-7.788470"></trkpt>
      <trkpt lat="41.804508" lon="-7.787358"></trkpt>
      <trkpt lat="41.801230" lon="-7.788688"></trkpt>
      <trkpt lat="41.797213" lon="-7.788038"></trkpt>
      <trkpt lat="41.795040" lon="-7.782552"></trkpt>
      <trkpt lat="41.787313" lon="-7.781082"></trkpt>
      <trkpt lat="41.780840" lon="-7.786288"></trkpt>
      <trkpt lat="41.779228" lon="-7.790705"></trkpt>
      <trkpt lat="41.780072" lon="-7.794947"></trkpt>
      <trkpt lat="41.778592" lon="-7.797428"></trkpt>
      <trkpt lat="41.766520" lon="-7.801267"></trkpt>
      <trkpt lat="41.761472" lon="-7.808207"></trkpt>
      <trkpt lat="41.760915" lon="-7.814977"></trkpt>
      <trkpt lat="41.757097" lon="-7.820408"></trkpt>
      <trkpt lat="41.756720" lon="-7.825207"></trkpt>
      <trkpt lat="41.760607" lon="-7.827557"></trkpt>
      <trkpt lat="41.757950" lon="-7.830050"></trkpt>
      <trkpt lat="41.756085" lon="-7.836267"></trkpt>
      <trkpt lat="41.757123" lon="-7.841878"></trkpt>
      <trkpt lat="41.755683" lon="-7.846168"></trkpt>
      <trkpt lat="41.756608" lon="-7.858238"></trkpt>
      <trkpt lat="41.752735" lon="-7.872007"></trkpt>
      <trkpt lat="41.745620" lon="-7.870283"></trkpt>
      <trkpt lat="41.740957" lon="-7.863793"></trkpt>
      <trkpt lat="41.738060" lon="-7.866787"></trkpt>
      <trkpt lat="41.737982" lon="-7.869950"></trkpt>
      <trkpt lat="41.735302" lon="-7.870625"></trkpt>
      <trkpt lat="41.733505" lon="-7.872850"></trkpt>
      <trkpt lat="41.730325" lon="-7.871060"></trkpt>
      <trkpt lat="41.722110" lon="-7.874270"></trkpt>
      <trkpt lat="41.723047" lon="-7.877400"></trkpt>
      <trkpt lat="41.722235" lon="-7.881597"></trkpt>
      <trkpt lat="41.720298" lon="-7.885430"></trkpt>
      <trkpt lat="41.716097" lon="-7.889323"></trkpt>
      <trkpt lat="41.714833" lon="-7.895580"></trkpt>
      <trkpt lat="41.709553" lon="-7.903088"></trkpt>
      <trkpt lat="41.708808" lon="-7.907445"></trkpt>
      <trkpt lat="41.710120" lon="-7.911628"></trkpt>
      <trkpt lat="41.708797" lon="-7.917602"></trkpt>
      <trkpt lat="41.705380" lon="-7.921323"></trkpt>
      <trkpt lat="41.705527" lon="-7.925960"></trkpt>
      <trkpt lat="41.701188" lon="-7.924335"></trkpt>
      <trkpt lat="41.699298" lon="-7.936745"></trkpt>
      <trkpt lat="41.695233" lon="-7.938313"></trkpt>
      <trkpt lat="41.692565" lon="-7.946020"></trkpt>
      <trkpt lat="41.688713" lon="-7.949767"></trkpt>
      <trkpt lat="41.689040" lon="-7.952992"></trkpt>
      <trkpt lat="41.686348" lon="-7.953855"></trkpt>
      <trkpt lat="41.684410" lon="-7.957070"></trkpt>
      <trkpt lat="41.679672" lon="-7.949502"></trkpt>
      <trkpt lat="41.676000" lon="-7.953395"></trkpt>
      <trkpt lat="41.674052" lon="-7.951200"></trkpt>
      <trkpt lat="41.672312" lon="-7.953680"></trkpt>
      <trkpt lat="41.674233" lon="-7.959898"></trkpt>
      <trkpt lat="41.671488" lon="-7.960897"></trkpt>
      <trkpt lat="41.671235" lon="-7.965770"></trkpt>
      <trkpt lat="41.669542" lon="-7.967865"></trkpt>
      <trkpt lat="41.672240" lon="-7.968908"></trkpt>
      <trkpt lat="41.673275" lon="-7.980060"></trkpt>
      <trkpt lat="41.669948" lon="-7.983438"></trkpt>
      <trkpt lat="41.667177" lon="-7.981300"></trkpt>
      <trkpt lat="41.666268" lon="-7.982170"></trkpt>
      <trkpt lat="41.668743" lon="-7.987618"></trkpt>
      <trkpt lat="41.678053" lon="-7.984402"></trkpt>
      <trkpt lat="41.681077" lon="-7.991568"></trkpt>
      <trkpt lat="41.680478" lon="-7.993712"></trkpt>
      <trkpt lat="41.683017" lon="-7.995560"></trkpt>
      <trkpt lat="41.683062" lon="-7.997745"></trkpt>
      <trkpt lat="41.679065" lon="-8.001298"></trkpt>
      <trkpt lat="41.683533" lon="-8.007278"></trkpt>
      <trkpt lat="41.681338" lon="-8.010237"></trkpt>
      <trkpt lat="41.682413" lon="-8.014163"></trkpt>
      <trkpt lat="41.680908" lon="-8.014583"></trkpt>
      <trkpt lat="41.679373" lon="-8.018957"></trkpt>
      <trkpt lat="41.681162" lon="-8.026682"></trkpt>
      <trkpt lat="41.683627" lon="-8.026033"></trkpt>
      <trkpt lat="41.684743" lon="-8.029177"></trkpt>
      <trkpt lat="41.684543" lon="-8.034733"></trkpt>
      <trkpt lat="41.687163" lon="-8.034550"></trkpt>
      <trkpt lat="41.687660" lon="-8.037002"></trkpt>
      <trkpt lat="41.684725" lon="-8.041627"></trkpt>
      <trkpt lat="41.684205" lon="-8.046882"></trkpt>
      <trkpt lat="41.679850" lon="-8.049258"></trkpt>
      <trkpt lat="41.679243" lon="-8.051012"></trkpt>
      <trkpt lat="41.677723" lon="-8.050090"></trkpt>
      <trkpt lat="41.676885" lon="-8.045575"></trkpt>
      <trkpt lat="41.676055" lon="-8.044708"></trkpt>
      <trkpt lat="41.675628" lon="-8.045712"></trkpt>
      <trkpt lat="41.676453" lon="-8.054943"></trkpt>
      <trkpt lat="41.674197" lon="-8.058742"></trkpt>
      <trkpt lat="41.674685" lon="-8.062738"></trkpt>
      <trkpt lat="41.677200" lon="-8.063703"></trkpt>
      <trkpt lat="41.678793" lon="-8.067252"></trkpt>
      <trkpt lat="41.680510" lon="-8.066495"></trkpt>
      <trkpt lat="41.681460" lon="-8.068030"></trkpt>
      <trkpt lat="41.683302" lon="-8.086313"></trkpt>
      <trkpt lat="41.682305" lon="-8.092468"></trkpt>
      <trkpt lat="41.683420" lon="-8.095217"></trkpt>
      <trkpt lat="41.681897" lon="-8.099022"></trkpt>
      <trkpt lat="41.678775" lon="-8.100045"></trkpt>
      <trkpt lat="41.679903" lon="-8.103140"></trkpt>
      <trkpt lat="41.677983" lon="-8.107072"></trkpt>
      <trkpt lat="41.680257" lon="-8.107177"></trkpt>
      <trkpt lat="41.681503" lon="-8.110535"></trkpt>
      <trkpt lat="41.679685" lon="-8.117263"></trkpt>
      <trkpt lat="41.676863" lon="-8.120342"></trkpt>
      <trkpt lat="41.678613" lon="-8.124243"></trkpt>
      <trkpt lat="41.674915" lon="-8.133758"></trkpt>
      <trkpt lat="41.675332" lon="-8.139450"></trkpt>
      <trkpt lat="41.672328" lon="-8.141203"></trkpt>
      <trkpt lat="41.673998" lon="-8.146900"></trkpt>
      <trkpt lat="41.671792" lon="-8.149820"></trkpt>
      <trkpt lat="41.671847" lon="-8.154743"></trkpt>
      <trkpt lat="41.669670" lon="-8.158640"></trkpt>
      <trkpt lat="41.665203" lon="-8.157167"></trkpt>
      <trkpt lat="41.662538" lon="-8.160007"></trkpt>
      <trkpt lat="41.661655" lon="-8.164630"></trkpt>
      <trkpt lat="41.658102" lon="-8.165398"></trkpt>
      <trkpt lat="41.657877" lon="-8.167075"></trkpt>
      <trkpt lat="41.654735" lon="-8.168890"></trkpt>
      <trkpt lat="41.652712" lon="-8.167827"></trkpt>
      <trkpt lat="41.645922" lon="-8.183347"></trkpt>
      <trkpt lat="41.640990" lon="-8.182745"></trkpt>
      <trkpt lat="41.636715" lon="-8.185562"></trkpt>
      <trkpt lat="41.634138" lon="-8.195960"></trkpt>
      <trkpt lat="41.623355" lon="-8.207748"></trkpt>
      <trkpt lat="41.623825" lon="-8.212238"></trkpt>
      <trkpt lat="41.619898" lon="-8.223787"></trkpt>
      <trkpt lat="41.621837" lon="-8.228140"></trkpt>
      <trkpt lat="41.616892" lon="-8.232047"></trkpt>
      <trkpt lat="41.614842" lon="-8.237843"></trkpt>
      <trkpt lat="41.615188" lon="-8.240817"></trkpt>
      <trkpt lat="41.612752" lon="-8.241992"></trkpt>
      <trkpt lat="41.611705" lon="-8.245062"></trkpt>
      <trkpt lat="41.611747" lon="-8.249102"></trkpt>
      <trkpt lat="41.616843" lon="-8.255038"></trkpt>
      <trkpt lat="41.609712" lon="-8.260343"></trkpt>
      <trkpt lat="41.609407" lon="-8.269967"></trkpt>
      <trkpt lat="41.602942" lon="-8.275700"></trkpt>
      <trkpt lat="41.600007" lon="-8.275577"></trkpt>
      <trkpt lat="41.594932" lon="-8.284295"></trkpt>
      <trkpt lat="41.590005" lon="-8.288105"></trkpt>
      <trkpt lat="41.588585" lon="-8.291873"></trkpt>
      <trkpt lat="41.589240" lon="-8.296530"></trkpt>
      <trkpt lat="41.584703" lon="-8.306285"></trkpt>
      <trkpt lat="41.584375" lon="-8.320055"></trkpt>
      <trkpt lat="41.588697" lon="-8.322555"></trkpt>
      <trkpt lat="41.586420" lon="-8.332510"></trkpt>
      <trkpt lat="41.588697" lon="-8.341932"></trkpt>
      <trkpt lat="41.591833" lon="-8.342018"></trkpt>
      <trkpt lat="41.592812" lon="-8.343682"></trkpt>
      <trkpt lat="41.589383" lon="-8.347422"></trkpt>
      <trkpt lat="41.587358" lon="-8.352755"></trkpt>
      <trkpt lat="41.585537" lon="-8.359018"></trkpt>
      <trkpt lat="41.585372" lon="-8.366177"></trkpt>
      <trkpt lat="41.583830" lon="-8.369513"></trkpt>
      <trkpt lat="41.581148" lon="-8.370572"></trkpt>
      <trkpt lat="41.572247" lon="-8.368675"></trkpt>
      <trkpt lat="41.568650" lon="-8.369533"></trkpt>
      <trkpt lat="41.566800" lon="-8.371420"></trkpt>
      <trkpt lat="41.566513" lon="-8.376977"></trkpt>
      <trkpt lat="41.560420" lon="-8.387120"></trkpt>
      <trkpt lat="41.549545" lon="-8.414258"></trkpt>
      <trkpt lat="41.545812" lon="-8.419883"></trkpt>
      <trkpt lat="41.542528" lon="-8.431250"></trkpt>
      <trkpt lat="41.531423" lon="-8.440292"></trkpt>
      <trkpt lat="41.529022" lon="-8.445322"></trkpt>
    </trkseg>
  </trk>
</gpx>