<?xml version="1.0" encoding="UTF-8"?>
<gpx version="1.1" creator="bsh-curvas-merge" xmlns="http://www.topografix.com/GPX/1/1">
  <trk>
    <name>Bragança</name>
    <trkseg>
      <trkpt lat="41.482593" lon="-8.422532"></trkpt>
      <trkpt lat="41.481437" lon="-8.423677"></trkpt>
      <trkpt lat="41.482513" lon="-8.425918"></trkpt>
      <trkpt lat="41.480337" lon="-8.426897"></trkpt>
      <trkpt lat="41.479578" lon="-8.424778"></trkpt>
      <trkpt lat="41.477708" lon="-8.425297"></trkpt>
      <trkpt lat="41.477882" lon="-8.423702"></trkpt>
      <trkpt lat="41.474112" lon="-8.429233"></trkpt>
      <trkpt lat="41.473553" lon="-8.428153"></trkpt>
      <trkpt lat="41.467893" lon="-8.429590"></trkpt>
      <trkpt lat="41.466103" lon="-8.427500"></trkpt>
      <trkpt lat="41.456173" lon="-8.425138"></trkpt>
      <trkpt lat="41.456242" lon="-8.418717"></trkpt>
      <trkpt lat="41.445578" lon="-8.408442"></trkpt>
      <trkpt lat="41.444567" lon="-8.406175"></trkpt>
      <trkpt lat="41.446403" lon="-8.404460"></trkpt>
      <trkpt lat="41.445618" lon="-8.398885"></trkpt>
      <trkpt lat="41.442218" lon="-8.399148"></trkpt>
      <trkpt lat="41.440163" lon="-8.394347"></trkpt>
      <trkpt lat="41.441858" lon="-8.387838"></trkpt>
      <trkpt lat="41.439995" lon="-8.383340"></trkpt>
      <trkpt lat="41.445403" lon="-8.375822"></trkpt>
      <trkpt lat="41.441942" lon="-8.372242"></trkpt>
      <trkpt lat="41.448233" lon="-8.352358"></trkpt>
      <trkpt lat="41.447837" lon="-8.348683"></trkpt>
      <trkpt lat="41.449770" lon="-8.346232"></trkpt>
      <trkpt lat="41.442588" lon="-8.333542"></trkpt>
      <trkpt lat="41.439998" lon="-8.332535"></trkpt>
      <trkpt lat="41.436335" lon="-8.312313"></trkpt>
      <trkpt lat="41.439298" lon="-8.305602"></trkpt>
      <trkpt lat="41.444360" lon="-8.309028"></trkpt>
      <trkpt lat="41.450867" lon="-8.305805"></trkpt>
      <trkpt lat="41.451313" lon="-8.301038"></trkpt>
      <trkpt lat="41.455050" lon="-8.294398"></trkpt>
      <trkpt lat="41.455812" lon="-8.290063"></trkpt>
      <trkpt lat="41.454105" lon="-8.283270"></trkpt>
      <trkpt lat="41.456057" lon="-8.279013"></trkpt>
      <trkpt lat="41.455780" lon="-8.264393"></trkpt>
      <trkpt lat="41.445883" lon="-8.255573"></trkpt>
      <trkpt lat="41.443657" lon="-8.247895"></trkpt>
      <trkpt lat="41.440785" lon="-8.249203"></trkpt>
      <trkpt lat="41.434673" lon="-8.248092"></trkpt>
      <trkpt lat="41.431763" lon="-8.245703"></trkpt>
      <trkpt lat="41.428795" lon="-8.246048"></trkpt>
      <trkpt lat="41.427400" lon="-8.244298"></trkpt>
      <trkpt lat="41.424277" lon="-8.244248"></trkpt>
      <trkpt lat="41.423242" lon="-8.241623"></trkpt>
      <trkpt lat="41.421337" lon="-8.242315"></trkpt>
      <trkpt lat="41.417765" lon="-8.240682"></trkpt>
      <trkpt lat="41.415495" lon="-8.236502"></trkpt>
      <trkpt lat="41.412612" lon="-8.235608"></trkpt>
      <trkpt lat="41.409795" lon="-8.229462"></trkpt>
      <trkpt lat="41.403975" lon="-8.228180"></trkpt>
      <trkpt lat="41.402788" lon="-8.223533"></trkpt>
      <trkpt lat="41.401222" lon="-8.224947"></trkpt>
      <trkpt lat="41.397382" lon="-8.223693"></trkpt>
      <trkpt lat="41.395642" lon="-8.224510"></trkpt>
      <trkpt lat="41.392125" lon="-8.219147"></trkpt>
      <trkpt lat="41.386065" lon="-8.218232"></trkpt>
      <trkpt lat="41.384162" lon="-8.216468"></trkpt>
      <trkpt lat="41.381808" lon="-8.209723"></trkpt>
      <trkpt lat="41.380090" lon="-8.209138"></trkpt>
      <trkpt lat="41.379488" lon="-8.210807"></trkpt>
      <trkpt lat="41.378120" lon="-8.209855"></trkpt>
      <trkpt lat="41.377295" lon="-8.213327"></trkpt>
      <trkpt lat="41.375348" lon="-8.213868"></trkpt>
      <trkpt lat="41.372173" lon="-8.209778"></trkpt>
      <trkpt lat="41.367612" lon="-8.209172"></trkpt>
      <trkpt lat="41.365377" lon="-8.206212"></trkpt>
      <trkpt lat="41.358888" lon="-8.206968"></trkpt>
      <trkpt lat="41.356653" lon="-8.205865"></trkpt>
      <trkpt lat="41.354057" lon="-8.196833"></trkpt>
      <trkpt lat="41.349160" lon="-8.193245"></trkpt>
      <trkpt lat="41.349217" lon="-8.184565"></trkpt>
      <trkpt lat="41.351647" lon="-8.179823"></trkpt>
      <trkpt lat="41.348832" lon="-8.174330"></trkpt>
      <trkpt lat="41.343700" lon="-8.172175"></trkpt>
      <trkpt lat="41.340562" lon="-8.165333"></trkpt>
      <trkpt lat="41.336082" lon="-8.160395"></trkpt>
      <trkpt lat="41.332555" lon="-8.151385"></trkpt>
      <trkpt lat="41.322410" lon="-8.145483"></trkpt>
      <trkpt lat="41.319307" lon="-8.145665"></trkpt>
      <trkpt lat="41.318257" lon="-8.143422"></trkpt>
      <trkpt lat="41.316252" lon="-8.142928"></trkpt>
      <trkpt lat="41.314192" lon="-8.135457"></trkpt>
      <trkpt lat="41.306872" lon="-8.126218"></trkpt>
      <trkpt lat="41.306863" lon="-8.118942"></trkpt>
      <trkpt lat="41.305830" lon="-8.116143"></trkpt>
      <trkpt lat="41.303900" lon="-8.115733"></trkpt>
      <trkpt lat="41.302942" lon="-8.111590"></trkpt>
      <trkpt lat="41.297963" lon="-8.113092"></trkpt>
      <trkpt lat="41.294317" lon="-8.106027"></trkpt>
      <trkpt lat="41.290407" lon="-8.105573"></trkpt>
      <trkpt lat="41.293768" lon="-8.100265"></trkpt>
      <trkpt lat="41.293502" lon="-8.098653"></trkpt>
      <trkpt lat="41.284878" lon="-8.103005"></trkpt>
      <trkpt lat="41.279792" lon="-8.096818"></trkpt>
      <trkpt lat="41.276197" lon="-8.097765"></trkpt>
      <trkpt lat="41.274042" lon="-8.096073"></trkpt>
      <trkpt lat="41.271505" lon="-8.096752"></trkpt>
      <trkpt lat="41.268573" lon="-8.091685"></trkpt>
      <trkpt lat="41.264940" lon="-8.091695"></trkpt>
      <trkpt lat="41.261733" lon="-8.096022"></trkpt>
      <trkpt lat="41.258097" lon="-8.096072"></trkpt>
      <trkpt lat="41.258723" lon="-8.084477"></trkpt>
      <trkpt lat="41.261943" lon="-8.075455"></trkpt>
      <trkpt lat="41.262308" lon="-8.070192"></trkpt>
      <trkpt lat="41.258960" lon="-8.060910"></trkpt>
      <trkpt lat="41.258302" lon="-8.052793"></trkpt>
      <trkpt lat="41.255570" lon="-8.046632"></trkpt>
      <trkpt lat="41.255133" lon="-8.039115"></trkpt>
      <trkpt lat="41.261740" lon="-8.027098"></trkpt>
      <trkpt lat="41.260110" lon="-8.017617"></trkpt>
      <trkpt lat="41.261992" lon="-8.009912"></trkpt>
      <trkpt lat="41.258312" lon="-7.997450"></trkpt>
      <trkpt lat="41.251403" lon="-7.994840"></trkpt>
      <trkpt lat="41.249402" lon="-7.991428"></trkpt>
      <trkpt lat="41.253492" lon="-7.976063"></trkpt>
      <trkpt lat="41.251290" lon="-7.962505"></trkpt>
      <trkpt lat="41.257618" lon="-7.947193"></trkpt>
      <trkpt lat="41.265068" lon="-7.941702"></trkpt>
      <trkpt lat="41.267540" lon="-7.937810"></trkpt>
      <trkpt lat="41.279253" lon="-7.867388"></trkpt>
      <trkpt lat="41.277227" lon="-7.859030"></trkpt>
      <trkpt lat="41.279583" lon="-7.840523"></trkpt>
      <trkpt lat="41.277518" lon="-7.823583"></trkpt>
      <trkpt lat="41.275232" lon="-7.819277"></trkpt>
      <trkpt lat="41.268690" lon="-7.816117"></trkpt>
      <trkpt lat="41.266007" lon="-7.812523"></trkpt>
      <trkpt lat="41.264680" lon="-7.792528"></trkpt>
      <trkpt lat="41.266115" lon="-7.788373"></trkpt>
      <trkpt lat="41.273537" lon="-7.778638"></trkpt>
      <trkpt lat="41.275157" lon="-7.768522"></trkpt>
      <trkpt lat="41.277433" lon="-7.770548"></trkpt>
      <trkpt lat="41.275265" lon="-7.776885"></trkpt>
      <trkpt lat="41.282452" lon="-7.765545"></trkpt>
      <trkpt lat="41.284432" lon="-7.759400"></trkpt>
      <trkpt lat="41.293117" lon="-7.755362"></trkpt>
      <trkpt lat="41.297442" lon="-7.755657"></trkpt>
      <trkpt lat="41.304722" lon="-7.750870"></trkpt>
      <trkpt lat="41.300127" lon="-7.752550"></trkpt>
      <trkpt lat="41.295592" lon="-7.746407"></trkpt>
      <trkpt lat="41.300562" lon="-7.752563"></trkpt>
      <trkpt lat="41.304362" lon="-7.750287"></trkpt>
      <trkpt lat="41.308212" lon="-7.750415"></trkpt>
      <trkpt lat="41.311917" lon="-7.745998"></trkpt>
      <trkpt lat="41.314615" lon="-7.737688"></trkpt>
      <trkpt lat="41.313688" lon="-7.731787"></trkpt>
      <trkpt lat="41.316682" lon="-7.726203"></trkpt>
      <trkpt lat="41.315530" lon="-7.717225"></trkpt>
      <trkpt lat="41.316227" lon="-7.707237"></trkpt>
      <trkpt lat="41.324143" lon="-7.698618"></trkpt>
      <trkpt lat="41.326978" lon="-7.687948"></trkpt>
      <trkpt lat="41.326518" lon="-7.680690"></trkpt>
      <trkpt lat="41.328817" lon="-7.675588"></trkpt>
      <trkpt lat="41.328238" lon="-7.672758"></trkpt>
      <trkpt lat="41.319922" lon="-7.665093"></trkpt>
      <trkpt lat="41.317277" lon="-7.659877"></trkpt>
      <trkpt lat="41.322283" lon="-7.652537"></trkpt>
      <trkpt lat="41.325875" lon="-7.629435"></trkpt>
      <trkpt lat="41.327832" lon="-7.626513"></trkpt>
      <trkpt lat="41.337608" lon="-7.621935"></trkpt>
      <trkpt lat="41.342893" lon="-7.608843"></trkpt>
      <trkpt lat="41.348777" lon="-7.600773"></trkpt>
      <trkpt lat="41.355575" lon="-7.596940"></trkpt>
      <trkpt lat="41.359903" lon="-7.592632"></trkpt>
      <trkpt lat="41.360072" lon="-7.564940"></trkpt>
      <trkpt lat="41.363342" lon="-7.559337"></trkpt>
      <trkpt lat="41.371105" lon="-7.554955"></trkpt>
      <trkpt lat="41.373440" lon="-7.551668"></trkpt>
      <trkpt lat="41.374132" lon="-7.547095"></trkpt>
      <trkpt lat="41.371947" lon="-7.532413"></trkpt>
      <trkpt lat="41.382677" lon="-7.512125"></trkpt>
      <trkpt lat="41.382410" lon="-7.507385"></trkpt>
      <trkpt lat="41.377690" lon="-7.494878"></trkpt>
      <trkpt lat="41.377977" lon="-7.489533"></trkpt>
      <trkpt lat="41.380800" lon="-7.482965"></trkpt>
      <trkpt lat="41.386188" lon="-7.479738"></trkpt>
      <trkpt lat="41.388818" lon="-7.475840"></trkpt>
      <trkpt lat="41.388088" lon="-7.464012"></trkpt>
      <trkpt lat="41.391570" lon="-7.450028"></trkpt>
      <trkpt lat="41.401110" lon="-7.441368"></trkpt>
      <trkpt lat="41.406443" lon="-7.422805"></trkpt>
      <trkpt lat="41.411645" lon="-7.415252"></trkpt>
      <trkpt lat="41.417548" lon="-7.410763"></trkpt>
      <trkpt lat="41.422595" lon="-7.404287"></trkpt>
      <trkpt lat="41.426412" lon="-7.395990"></trkpt>
      <trkpt lat="41.424652" lon="-7.385348"></trkpt>
      <trkpt lat="41.420623" lon="-7.378097"></trkpt>
      <trkpt lat="41.420607" lon="-7.373342"></trkpt>
      <trkpt lat="41.423893" lon="-7.362610"></trkpt>
      <trkpt lat="41.428810" lon="-7.355913"></trkpt>
      <trkpt lat="41.431168" lon="-7.341747"></trkpt>
      <trkpt lat="41.434797" lon="-7.334292"></trkpt>
      <trkpt lat="41.436050" lon="-7.319423"></trkpt>
      <trkpt lat="41.450380" lon="-7.287637"></trkpt>
      <trkpt lat="41.451518" lon="-7.270318"></trkpt>
      <trkpt lat="41.460150" lon="-7.261787"></trkpt>
      <trkpt lat="41.463552" lon="-7.248715"></trkpt>
      <trkpt lat="41.472665" lon="-7.228405"></trkpt>
      <trkpt lat="41.481683" lon="-7.212558"></trkpt>
      <trkpt lat="41.485413" lon="-7.209133"></trkpt>
      <trkpt lat="41.488643" lon="-7.202403"></trkpt>
      <trkpt lat="41.497808" lon="-7.190595"></trkpt>
      <trkpt lat="41.499830" lon="-7.184248"></trkpt>
      <trkpt lat="41.502765" lon="-7.182177"></trkpt>
      <trkpt lat="41.508185" lon="-7.183258"></trkpt>
      <trkpt lat="41.510755" lon="-7.182355"></trkpt>
      <trkpt lat="41.517990" lon="-7.171380"></trkpt>
      <trkpt lat="41.516000" lon="-7.156070"></trkpt>
      <trkpt lat="41.518842" lon="-7.146160"></trkpt>
      <trkpt lat="41.518827" lon="-7.134383"></trkpt>
      <trkpt lat="41.521770" lon="-7.118238"></trkpt>
      <trkpt lat="41.522048" lon="-7.104572"></trkpt>
      <trkpt lat="41.529192" lon="-7.089858"></trkpt>
      <trkpt lat="41.533928" lon="-7.084155"></trkpt>
      <trkpt lat="41.536673" lon="-7.072008"></trkpt>
      <trkpt lat="41.547143" lon="-7.056110"></trkpt>
      <trkpt lat="41.547042" lon="-7.044088"></trkpt>
      <trkpt lat="41.548512" lon="-7.038653"></trkpt>
      <trkpt lat="41.555688" lon="-7.031987"></trkpt>
      <trkpt lat="41.561597" lon="-7.022667"></trkpt>
      <trkpt lat="41.562390" lon="-7.013832"></trkpt>
      <trkpt lat="41.566487" lon="-7.005532"></trkpt>
      <trkpt lat="41.566697" lon="-6.993775"></trkpt>
      <trkpt lat="41.569287" lon="-6.980665"></trkpt>
      <trkpt lat="41.574073" lon="-6.972610"></trkpt>
      <trkpt lat="41.574855" lon="-6.963788"></trkpt>
      <trkpt lat="41.577508" lon="-6.956583"></trkpt>
      <trkpt lat="41.577680" lon="-6.948660"></trkpt>
      <trkpt lat="41.593320" lon="-6.912125"></trkpt>
      <trkpt lat="41.604955" lon="-6.896727"></trkpt>
      <trkpt lat="41.610770" lon="-6.881728"></trkpt>
      <trkpt lat="41.615012" lon="-6.876665"></trkpt>
      <trkpt lat="41.629483" lon="-6.848317"></trkpt>
      <trkpt lat="41.638150" lon="-6.842813"></trkpt>
      <trkpt lat="41.643808" lon="-6.836810"></trkpt>
      <trkpt lat="41.652467" lon="-6.834637"></trkpt>
      <trkpt lat="41.658975" lon="-6.826642"></trkpt>
      <trkpt lat="41.664472" lon="-6.814273"></trkpt>
      <trkpt lat="41.667255" lon="-6.811160"></trkpt>
      <trkpt lat="41.671443" lon="-6.810797"></trkpt>
      <trkpt lat="41.677862" lon="-6.816182"></trkpt>
      <trkpt lat="41.681503" lon="-6.816937"></trkpt>
      <trkpt lat="41.690797" lon="-6.812200"></trkpt>
      <trkpt lat="41.713270" lon="-6.804597"></trkpt>
      <trkpt lat="41.716777" lon="-6.806343"></trkpt>
      <trkpt lat="41.726390" lon="-6.818432"></trkpt>
      <trkpt lat="41.731660" lon="-6.819383"></trkpt>
      <trkpt lat="41.748905" lon="-6.807743"></trkpt>
      <trkpt lat="41.755050" lon="-6.805693"></trkpt>
      <trkpt lat="41.760038" lon="-6.799918"></trkpt>
      <trkpt lat="41.761665" lon="-6.792920"></trkpt>
      <trkpt lat="41.771365" lon="-6.791072"></trkpt>
      <trkpt lat="41.778025" lon="-6.783585"></trkpt>
      <trkpt lat="41.778827" lon="-6.779013"></trkpt>
      <trkpt lat="41.782415" lon="-6.778133"></trkpt>
      <trkpt lat="41.791868" lon="-6.770045"></trkpt>
      <trkpt lat="41.798835" lon="-6.770655"></trkpt>
      <trkpt lat="41.799592" lon="-6.764680"></trkpt>
      <trkpt lat="41.802650" lon="-6.760682"></trkpt>
      <trkpt lat="41.806525" lon="-6.759698"></trkpt>
      <trkpt lat="41.806538" lon="-6.754833"></trkpt>
      <trkpt lat="41.812648" lon="-6.742023"></trkpt>
      <trkpt lat="41.816097" lon="-6.737692"></trkpt>
      <trkpt lat="41.812810" lon="-6.732558"></trkpt>
      <trkpt lat="41.812600" lon="-6.726767"></trkpt>
      <trkpt lat="41.804495" lon="-6.716378"></trkpt>
      <trkpt lat="41.802130" lon="-6.708875"></trkpt>
      <trkpt lat="41.796682" lon="-6.705565"></trkpt>
      <trkpt lat="41.795577" lon="-6.703368"></trkpt>
      <trkpt lat="41.802647" lon="-6.696303"></trkpt>
      <trkpt lat="41.808345" lon="-6.694002"></trkpt>
      <trkpt lat="41.816080" lon="-6.684857"></trkpt>
      <trkpt lat="41.816305" lon="-6.677500"></trkpt>
      <trkpt lat="41.819490" lon="-6.672622"></trkpt>
      <trkpt lat="41.817903" lon="-6.658115"></trkpt>
      <trkpt lat="41.816087" lon="-6.655170"></trkpt>
      <trkpt lat="41.817075" lon="-6.648578"></trkpt>
      <trkpt lat="41.818813" lon="-6.646112"></trkpt>
      <trkpt lat="41.814953" lon="-6.634310"></trkpt>
      <trkpt lat="41.817075" lon="-6.632827"></trkpt>
      <trkpt lat="41.817648" lon="-6.629327"></trkpt>
      <trkpt lat="41.816998" lon="-6.632962"></trkpt>
      <trkpt lat="41.814978" lon="-6.634225"></trkpt>
      <trkpt lat="41.818850" lon="-6.645972"></trkpt>
      <trkpt lat="41.817103" lon="-6.648658"></trkpt>
      <trkpt lat="41.816155" lon="-6.655293"></trkpt>
      <trkpt lat="41.817995" lon="-6.658203"></trkpt>
      <trkpt lat="41.819555" lon="-6.672695"></trkpt>
      <trkpt lat="41.816277" lon="-6.677572"></trkpt>
      <trkpt lat="41.816132" lon="-6.684945"></trkpt>
      <trkpt lat="41.808538" lon="-6.693858"></trkpt>
      <trkpt lat="41.802280" lon="-6.696615"></trkpt>
      <trkpt lat="41.795627" lon="-6.703177"></trkpt>
      <trkpt lat="41.796748" lon="-6.705555"></trkpt>
      <trkpt lat="41.802513" lon="-6.709378"></trkpt>
      <trkpt lat="41.804632" lon="-6.716525"></trkpt>
      <trkpt lat="41.812638" lon="-6.726685"></trkpt>
      <trkpt lat="41.812845" lon="-6.732325"></trkpt>
      <trkpt lat="41.816125" lon="-6.737333"></trkpt>
      <trkpt lat="41.807853" lon="-6.753610"></trkpt>
      <trkpt lat="41.810010" lon="-6.755497"></trkpt>
      <trkpt lat="41.808583" lon="-6.757705"></trkpt>
      <trkpt lat="41.809485" lon="-6.757487"></trkpt>
      <trkpt lat="41.809307" lon="-6.760078"></trkpt>
      <trkpt lat="41.807548" lon="-6.758837"></trkpt>
      <trkpt lat="41.803083" lon="-6.760472"></trkpt>
      <trkpt lat="41.801263" lon="-6.764395"></trkpt>
      <trkpt lat="41.804157" lon="-6.786803"></trkpt>
      <trkpt lat="41.812720" lon="-6.802502"></trkpt>
      <trkpt lat="41.813605" lon="-6.813998"></trkpt>
      <trkpt lat="41.818823" lon="-6.816648"></trkpt>
      <trkpt lat="41.820650" lon="-6.827068"></trkpt>
      <trkpt lat="41.827645" lon="-6.838232"></trkpt>
      <trkpt lat="41.832917" lon="-6.852408"></trkpt>
      <trkpt lat="41.836127" lon="-6.856978"></trkpt>
      <trkpt lat="41.844127" lon="-6.863188"></trkpt>
      <trkpt lat="41.847505" lon="-6.869623"></trkpt>
      <trkpt lat="41.844572" lon="-6.879315"></trkpt>
      <trkpt lat="41.842882" lon="-6.879977"></trkpt>
      <trkpt lat="41.839500" lon="-6.885940"></trkpt>
      <trkpt lat="41.837670" lon="-6.886412"></trkpt>
      <trkpt lat="41.838930" lon="-6.888360"></trkpt>
      <trkpt lat="41.836503" lon="-6.891468"></trkpt>
      <trkpt lat="41.837340" lon="-6.892993"></trkpt>
      <trkpt lat="41.837865" lon="-6.891663"></trkpt>
      <trkpt lat="41.838973" lon="-6.892555"></trkpt>
      <trkpt lat="41.841822" lon="-6.898570"></trkpt>
      <trkpt lat="41.838925" lon="-6.902642"></trkpt>
      <trkpt lat="41.841305" lon="-6.907745"></trkpt>
      <trkpt lat="41.840263" lon="-6.915207"></trkpt>
      <trkpt lat="41.838762" lon="-6.917035"></trkpt>
      <trkpt lat="41.839503" lon="-6.922587"></trkpt>
      <trkpt lat="41.837355" lon="-6.925682"></trkpt>
      <trkpt lat="41.836300" lon="-6.933788"></trkpt>
      <trkpt lat="41.838785" lon="-6.937095"></trkpt>
      <trkpt lat="41.840525" lon="-6.934517"></trkpt>
      <trkpt lat="41.842728" lon="-6.934752"></trkpt>
      <trkpt lat="41.843148" lon="-6.932993"></trkpt>
      <trkpt lat="41.844020" lon="-6.935015"></trkpt>
      <trkpt lat="41.845433" lon="-6.933365"></trkpt>
      <trkpt lat="41.846950" lon="-6.935125"></trkpt>
      <trkpt lat="41.847655" lon="-6.932965"></trkpt>
      <trkpt lat="41.848173" lon="-6.935928"></trkpt>
      <trkpt lat="41.846685" lon="-6.939432"></trkpt>
      <trkpt lat="41.850820" lon="-6.944127"></trkpt>
      <trkpt lat="41.849950" lon="-6.945635"></trkpt>
      <trkpt lat="41.845413" lon="-6.944613"></trkpt>
      <trkpt lat="41.844065" lon="-6.946102"></trkpt>
      <trkpt lat="41.842957" lon="-6.952697"></trkpt>
      <trkpt lat="41.846235" lon="-6.956082"></trkpt>
      <trkpt lat="41.842497" lon="-6.959603"></trkpt>
      <trkpt lat="41.839218" lon="-6.966498"></trkpt>
      <trkpt lat="41.838782" lon="-6.974698"></trkpt>
      <trkpt lat="41.837527" lon="-6.975495"></trkpt>
      <trkpt lat="41.835455" lon="-6.972935"></trkpt>
      <trkpt lat="41.833597" lon="-6.974163"></trkpt>
      <trkpt lat="41.833443" lon="-6.977275"></trkpt>
      <trkpt lat="41.831438" lon="-6.976000"></trkpt>
      <trkpt lat="41.829735" lon="-6.977643"></trkpt>
      <trkpt lat="41.831137" lon="-6.988287"></trkpt>
      <trkpt lat="41.829683" lon="-6.992527"></trkpt>
      <trkpt lat="41.836995" lon="-6.993427"></trkpt>
      <trkpt lat="41.838040" lon="-6.995252"></trkpt>
      <trkpt lat="41.829223" lon="-7.013940"></trkpt>
      <trkpt lat="41.830790" lon="-7.017775"></trkpt>
      <trkpt lat="41.838980" lon="-7.018605"></trkpt>
      <trkpt lat="41.835520" lon="-7.024487"></trkpt>
      <trkpt lat="41.837322" lon="-7.029562"></trkpt>
      <trkpt lat="41.841102" lon="-7.032813"></trkpt>
      <trkpt lat="41.838175" lon="-7.035127"></trkpt>
      <trkpt lat="41.837532" lon="-7.042073"></trkpt>
      <trkpt lat="41.841017" lon="-7.050818"></trkpt>
      <trkpt lat="41.845208" lon="-7.055253"></trkpt>
      <trkpt lat="41.842522" lon="-7.058132"></trkpt>
      <trkpt lat="41.838598" lon="-7.058278"></trkpt>
      <trkpt lat="41.837203" lon="-7.060653"></trkpt>
      <trkpt lat="41.834737" lon="-7.060800"></trkpt>
      <trkpt lat="41.834287" lon="-7.072555"></trkpt>
      <trkpt lat="41.830640" lon="-7.073875"></trkpt>
      <trkpt lat="41.830440" lon="-7.083355"></trkpt>
      <trkpt lat="41.826493" lon="-7.086180"></trkpt>
      <trkpt lat="41.825745" lon="-7.090265"></trkpt>
      <trkpt lat="41.814683" lon="-7.090538"></trkpt>
      <trkpt lat="41.812422" lon="-7.092762"></trkpt>
      <trkpt lat="41.804660" lon="-7.095363"></trkpt>
      <trkpt lat="41.803680" lon="-7.099332"></trkpt>
      <trkpt lat="41.796932" lon="-7.104243"></trkpt>
      <trkpt lat="41.794362" lon="-7.111387"></trkpt>
      <trkpt lat="41.789957" lon="-7.112813"></trkpt>
      <trkpt lat="41.787350" lon="-7.117005"></trkpt>
      <trkpt lat="41.784477" lon="-7.116488"></trkpt>
      <trkpt lat="41.782067" lon="-7.117900"></trkpt>
      <trkpt lat="41.780265" lon="-7.125028"></trkpt>
      <trkpt lat="41.772048" lon="-7.128925"></trkpt>
      <trkpt lat="41.768793" lon="-7.128793"></trkpt>
      <trkpt lat="41.765838" lon="-7.134665"></trkpt>
      <trkpt lat="41.762927" lon="-7.133165"></trkpt>
      <trkpt lat="41.759013" lon="-7.135315"></trkpt>
      <trkpt lat="41.757990" lon="-7.142122"></trkpt>
      <trkpt lat="41.753218" lon="-7.147385"></trkpt>
      <trkpt lat="41.751045" lon="-7.146903"></trkpt>
      <trkpt lat="41.745638" lon="-7.149883"></trkpt>
      <trkpt lat="41.744187" lon="-7.152957"></trkpt>
      <trkpt lat="41.740420" lon="-7.153747"></trkpt>
      <trkpt lat="41.739147" lon="-7.155765"></trkpt>
      <trkpt lat="41.739633" lon="-7.164830"></trkpt>
      <trkpt lat="41.743300" lon="-7.167522"></trkpt>
      <trkpt lat="41.738475" lon="-7.170400"></trkpt>
      <trkpt lat="41.739810" lon="-7.171518"></trkpt>
      <trkpt lat="41.745400" lon="-7.169715"></trkpt>
      <trkpt lat="41.747620" lon="-7.172670"></trkpt>
      <trkpt lat="41.753430" lon="-7.173422"></trkpt>
      <trkpt lat="41.749788" lon="-7.175202"></trkpt>
      <trkpt lat="41.745035" lon="-7.173512"></trkpt>
      <trkpt lat="41.739077" lon="-7.177860"></trkpt>
      <trkpt lat="41.738423" lon="-7.180907"></trkpt>
      <trkpt lat="41.744388" lon="-7.181525"></trkpt>
      <trkpt lat="41.741898" lon="-7.191357"></trkpt>
      <trkpt lat="41.744388" lon="-7.201088"></trkpt>
      <trkpt lat="41.749703" lon="-7.199115"></trkpt>
      <trkpt lat="41.750600" lon="-7.204173"></trkpt>
      <trkpt lat="41.752503" lon="-7.205288"></trkpt>
      <trkpt lat="41.752613" lon="-7.211672"></trkpt>
      <trkpt lat="41.749913" lon="-7.217483"></trkpt>
      <trkpt lat="41.752208" lon="-7.218713"></trkpt>
      <trkpt lat="41.753905" lon="-7.225078"></trkpt>
      <trkpt lat="41.756995" lon="-7.225830"></trkpt>
      <trkpt lat="41.761708" lon="-7.229950"></trkpt>
      <trkpt lat="41.763400" lon="-7.235167"></trkpt>
      <trkpt lat="41.762793" lon="-7.239897"></trkpt>
      <trkpt lat="41.759815" lon="-7.241723"></trkpt>
      <trkpt lat="41.758998" lon="-7.249873"></trkpt>
      <trkpt lat="41.756173" lon="-7.252553"></trkpt>
      <trkpt lat="41.759297" lon="-7.257133"></trkpt>
      <trkpt lat="41.757475" lon="-7.266443"></trkpt>
      <trkpt lat="41.760178" lon="-7.270060"></trkpt>
      <trkpt lat="41.763492" lon="-7.270985"></trkpt>
      <trkpt lat="41.764315" lon="-7.274093"></trkpt>
      <trkpt lat="41.767558" lon="-7.275235"></trkpt>
      <trkpt lat="41.770730" lon="-7.280373"></trkpt>
      <trkpt lat="41.775465" lon="-7.278723"></trkpt>
      <trkpt lat="41.780143" lon="-7.281327"></trkpt>
      <trkpt lat="41.776547" lon="-7.283713"></trkpt>
      <trkpt lat="41.776347" lon="-7.286583"></trkpt>
      <trkpt lat="41.774693" lon="-7.288070"></trkpt>
      <trkpt lat="41.774232" lon="-7.297460"></trkpt>
      <trkpt lat="41.772525" lon="-7.300768"></trkpt>
      <trkpt lat="41.774808" lon="-7.308135"></trkpt>
      <trkpt lat="41.772635" lon="-7.314703"></trkpt>
      <trkpt lat="41.777123" lon="-7.318810"></trkpt>
      <trkpt lat="41.774527" lon="-7.327790"></trkpt>
      <trkpt lat="41.776915" lon="-7.331223"></trkpt>
      <trkpt lat="41.774102" lon="-7.335300"></trkpt>
      <trkpt lat="41.772530" lon="-7.341955"></trkpt>
      <trkpt lat="41.766142" lon="-7.351053"></trkpt>
      <trkpt lat="41.766693" lon="-7.359297"></trkpt>
      <trkpt lat="41.762185" lon="-7.367210"></trkpt>
      <trkpt lat="41.764698" lon="-7.373622"></trkpt>
      <trkpt lat="41.762530" lon="-7.377378"></trkpt>
      <trkpt lat="41.763655" lon="-7.380630"></trkpt>
      <trkpt lat="41.762627" lon="-7.393290"></trkpt>
      <trkpt lat="41.764422" lon="-7.397642"></trkpt>
      <trkpt lat="41.761983" lon="-7.399575"></trkpt>
      <trkpt lat="41.761718" lon="-7.405277"></trkpt>
      <trkpt lat="41.756453" lon="-7.414463"></trkpt>
      <trkpt lat="41.749100" lon="-7.417142"></trkpt>
      <trkpt lat="41.752098" lon="-7.423517"></trkpt>
      <trkpt lat="41.748010" lon="-7.428673"></trkpt>
      <trkpt lat="41.742618" lon="-7.449423"></trkpt>
      <trkpt lat="41.733672" lon="-7.456177"></trkpt>
      <trkpt lat="41.737018" lon="-7.465230"></trkpt>
      <trkpt lat="41.732240" lon="-7.468880"></trkpt>
      <trkpt lat="41.734917" lon="-7.473073"></trkpt>
      <trkpt lat="41.738290" lon="-7.474748"></trkpt>
      <trkpt lat="41.737225" lon="-7.477442"></trkpt>
      <trkpt lat="41.724107" lon="-7.479397"></trkpt>
      <trkpt lat="41.720523" lon="-7.489617"></trkpt>
      <trkpt lat="41.720675" lon="-7.497387"></trkpt>
      <trkpt lat="41.713010" lon="-7.509602"></trkpt>
      <trkpt lat="41.714773" lon="-7.526815"></trkpt>
      <trkpt lat="41.716605" lon="-7.527902"></trkpt>
      <trkpt lat="41.718632" lon="-7.532545"></trkpt>
      <trkpt lat="41.712207" lon="-7.545188"></trkpt>
      <trkpt lat="41.707083" lon="-7.545825"></trkpt>
      <trkpt lat="41.694843" lon="-7.553968"></trkpt>
      <trkpt lat="41.690038" lon="-7.560307"></trkpt>
      <trkpt lat="41.682587" lon="-7.566147"></trkpt>
      <trkpt lat="41.674263" lon="-7.567090"></trkpt>
      <trkpt lat="41.664712" lon="-7.572357"></trkpt>
      <trkpt lat="41.659333" lon="-7.578388"></trkpt>
      <trkpt lat="41.648527" lon="-7.582125"></trkpt>
      <trkpt lat="41.642540" lon="-7.589700"></trkpt>
      <trkpt lat="41.635645" lon="-7.594807"></trkpt>
      <trkpt lat="41.625460" lon="-7.596788"></trkpt>
      <trkpt lat="41.616663" lon="-7.608202"></trkpt>
      <trkpt lat="41.615837" lon="-7.619538"></trkpt>
      <trkpt lat="41.612197" lon="-7.625235"></trkpt>
      <trkpt lat="41.601147" lon="-7.626457"></trkpt>
      <trkpt lat="41.585497" lon="-7.638627"></trkpt>
      <trkpt lat="41.578577" lon="-7.642058"></trkpt>
      <trkpt lat="41.569083" lon="-7.637462"></trkpt>
      <trkpt lat="41.558167" lon="-7.626042"></trkpt>
      <trkpt lat="41.555528" lon="-7.625348"></trkpt>
      <trkpt lat="41.542490" lon="-7.627637"></trkpt>
      <trkpt lat="41.533272" lon="-7.633212"></trkpt>
      <trkpt lat="41.527450" lon="-7.641272"></trkpt>
      <trkpt lat="41.521147" lon="-7.644848"></trkpt>
      <trkpt lat="41.515127" lon="-7.656402"></trkpt>
      <trkpt lat="41.512213" lon="-7.657683"></trkpt>
      <trkpt lat="41.504097" lon="-7.657582"></trkpt>
      <trkpt lat="41.496713" lon="-7.666135"></trkpt>
      <trkpt lat="41.490453" lon="-7.687110"></trkpt>
      <trkpt lat="41.490230" lon="-7.692038"></trkpt>
      <trkpt lat="41.492835" lon="-7.697580"></trkpt>
      <trkpt lat="41.499807" lon="-7.701853"></trkpt>
      <trkpt lat="41.502573" lon="-7.706132"></trkpt>
      <trkpt lat="41.503420" lon="-7.719967"></trkpt>
      <trkpt lat="41.508102" lon="-7.738427"></trkpt>
      <trkpt lat="41.501018" lon="-7.756038"></trkpt>
      <trkpt lat="41.503605" lon="-7.782728"></trkpt>
      <trkpt lat="41.497183" lon="-7.798008"></trkpt>
      <trkpt lat="41.492672" lon="-7.838080"></trkpt>
      <trkpt lat="41.489675" lon="-7.845145"></trkpt>
      <trkpt lat="41.486432" lon="-7.863128"></trkpt>
      <trkpt lat="41.479692" lon="-7.869352"></trkpt>
      <trkpt lat="41.477297" lon="-7.875077"></trkpt>
      <trkpt lat="41.476893" lon="-7.887893"></trkpt>
      <trkpt lat="41.479485" lon="-7.895403"></trkpt>
      <trkpt lat="41.479140" lon="-7.903705"></trkpt>
      <trkpt lat="41.481807" lon="-7.921215"></trkpt>
      <trkpt lat="41.480262" lon="-7.926598"></trkpt>
      <trkpt lat="41.473762" lon="-7.933908"></trkpt>
      <trkpt lat="41.471977" lon="-7.938357"></trkpt>
      <trkpt lat="41.476280" lon="-7.959282"></trkpt>
      <trkpt lat="41.471537" lon="-7.972445"></trkpt>
      <trkpt lat="41.472222" lon="-7.981792"></trkpt>
      <trkpt lat="41.470937" lon="-7.993402"></trkpt>
      <trkpt lat="41.465763" lon="-8.006063"></trkpt>
      <trkpt lat="41.461853" lon="-8.028008"></trkpt>
      <trkpt lat="41.455637" lon="-8.035505"></trkpt>
      <trkpt lat="41.453627" lon="-8.043185"></trkpt>
      <trkpt lat="41.447272" lon="-8.056242"></trkpt>
      <trkpt lat="41.448285" lon="-8.067792"></trkpt>
      <trkpt lat="41.443918" lon="-8.083520"></trkpt>
      <trkpt lat="41.444613" lon="-8.096983"></trkpt>
      <trkpt lat="41.439705" lon="-8.123028"></trkpt>
      <trkpt lat="41.434382" lon="-8.138810"></trkpt>
      <trkpt lat="41.435565" lon="-8.144558"></trkpt>
      <trkpt lat="41.441575" lon="-8.152492"></trkpt>
      <trkpt lat="41.441788" lon="-8.159140"></trkpt>
      <trkpt lat="41.437420" lon="-8.166803"></trkpt>
      <trkpt lat="41.433733" lon="-8.178990"></trkpt>
      <trkpt lat="41.425232" lon="-8.184920"></trkpt>
      <trkpt lat="41.422052" lon="-8.196782"></trkpt>
      <trkpt lat="41.415955" lon="-8.203427"></trkpt>
      <trkpt lat="41.410395" lon="-8.205297"></trkpt>
      <trkpt lat="41.408063" lon="-8.207737"></trkpt>
      <trkpt lat="41.407457" lon="-8.223578"></trkpt>
      <trkpt lat="41.397867" lon="-8.236748"></trkpt>
      <trkpt lat="41.398192" lon="-8.243417"></trkpt>
      <trkpt lat="41.403635" lon="-8.256518"></trkpt>
      <trkpt lat="41.403385" lon="-8.266140"></trkpt>
      <trkpt lat="41.405877" lon="-8.271902"></trkpt>
      <trkpt lat="41.406562" lon="-8.279387"></trkpt>
      <trkpt lat="41.410087" lon="-8.286307"></trkpt>
      <trkpt lat="41.412820" lon="-8.300508"></trkpt>
      <trkpt lat="41.409098" lon="-8.316512"></trkpt>
      <trkpt lat="41.410100" lon="-8.322048"></trkpt>
      <trkpt lat="41.412638" lon="-8.324300"></trkpt>
      <trkpt lat="41.417700" lon="-8.325058"></trkpt>
      <trkpt lat="41.422513" lon="-8.330103"></trkpt>
      <trkpt lat="41.427487" lon="-8.330723"></trkpt>
      <trkpt lat="41.430500" lon="-8.337338"></trkpt>
      <trkpt lat="41.440960" lon="-8.329242"></trkpt>
      <trkpt lat="41.445008" lon="-8.329185"></trkpt>
      <trkpt lat="41.449097" lon="-8.331777"></trkpt>
      <trkpt lat="41.454488" lon="-8.341703"></trkpt>
      <trkpt lat="41.457310" lon="-8.357042"></trkpt>
      <trkpt lat="41.463087" lon="-8.363162"></trkpt>
      <trkpt lat="41.467133" lon="-8.371682"></trkpt>
      <trkpt lat="41.471675" lon="-8.376738"></trkpt>
      <trkpt lat="41.473500" lon="-8.385457"></trkpt>
      <trkpt lat="41.479883" lon="-8.392712"></trkpt>
      <trkpt lat="41.482968" lon="-8.404210"></trkpt>
      <trkpt lat="41.490753" lon="-8.410072"></trkpt>
      <trkpt lat="41.498753" lon="-8.423417"></trkpt>
      <trkpt lat="41.501545" lon="-8.437153"></trkpt>
      <trkpt lat="41.505593" lon="-8.444588"></trkpt>
      <trkpt lat="41.514835" lon="-8.444737"></trkpt>
      <trkpt lat="41.517800" lon="-8.442353"></trkpt>
      <trkpt lat="41.519937" lon="-8.443018"></trkpt>
      <trkpt lat="41.519952" lon="-8.441952"></trkpt>
      <trkpt lat="41.517023" lon="-8.448210"></trkpt>
      <trkpt lat="41.520283" lon="-8.450158"></trkpt>
      <trkpt lat="41.528670" lon="-8.447198"></trkpt>
      <trkpt lat="41.529083" lon="-8.444738"></trkpt>
      <trkpt lat="41.528537" lon="-8.446597"></trkpt>
    </trkseg>
  </trk>
</gpx>